LEMUR-2-KREMPEL-BRO1    
1 63357U 25061G   26095.83166979  .00005267  00000+0  29195-3 0  9997
2 63357  97.5569  72.2135 0020212 134.8973 225.3903 15.14049322 56689
LEMUR-2-LANGER2SPACE    
1 63358U 25061H   26095.64543392  .00005070  00000+0  28388-3 0  9990
2 63358  97.5575  71.8718 0018015 143.1664 217.0809 15.13743993 56640
LEMUR-2-BALTO           
1 63395U 25052BH  26095.66066126  .00008625  00000+0  70935-3 0  9992
2 63395  97.6984 350.1511 0000737  90.7717 269.3590 14.99371394 57898
LEMUR-2-KRISH           
1 64561U 25135AK  26095.76344175  .00007317  00000+0  66499-3 0  9991
2 64561  97.7649 211.2196 0001113  96.9865 263.1482 14.95534764 43097
LEMUR-2-HUBBLE-4        
1 64565U 25135AP  26095.76395814  .00002537  00000+0  24953-3 0  9999
2 64565  97.7603 210.5870 0003272 146.4413 213.7015 14.92999118 43065
LEMUR-2-SEJONG-2        
1 64586U 25135BL  26095.61804728  .00005305  00000+0  47688-3 0  9991
2 64586  97.7603 211.2113 0004108 190.1957 169.9182 14.96085561 43096
LEMUR-2-HUBBLE-5        
1 64840U 25135BT  26095.75761043  .00002623  00000+0  25187-3 0  9991
2 64840  97.7622 211.1071 0004963 205.9735 154.1236 14.93916523 43094
LEMUR-2-KARENDARRELL    
1 64841U 25135BU  26095.85362506  .00011987  00000+0  99036-3 0  9991
2 64841  97.7608 212.2518 0008736 110.7520 249.4640 14.99077317 43175
LEMUR-2-LUCILLE-ROSE    
1 65403U 25135BV  26095.76199352  .00011207  00000+0  92513-3 0  9991
2 65403  97.7642 212.1459 0010252 154.5733 205.5996 14.99117832 37783
LEMUR-2-AFFIE-WAUWIE    
1 66295U 25248C   26095.84788632  .00020533  00000+0  82092-3 0  9993
2 66295  45.4004 146.1851 0007859  21.2600 338.8614 15.24832250 23542
LEMUR-2-DEANANDMAEVE    
1 66678U 25276N   26095.66736357  .00008862  00000+0  42856-3 0  9991
2 66678  97.4243 170.3860 0004534 244.1015 115.9752 15.18829562 19403
LEMUR-2-STAS-GORBUK     
1 66686U 25276W   26095.73415429  .00007962  00000+0  38786-3 0  9999
2 66686  97.4281 170.5048 0003951 236.4251 123.6606 15.18608546 19414
LEMUR-2-TEODOR          
1 66768U 25276DG  26095.73150162  .00007696  00000+0  35750-3 0  9992
2 66768  97.4180 170.6483 0002116  82.9292 277.2183 15.20275145 19434
LEMUR-2-LAILA           
1 66776U 25276DQ  26095.71568795  .00007596  00000+0  35072-3 0  9990
2 66776  97.4203 170.7078 0002759  87.8988 272.2563 15.20486145 19430
LEMUR-2-CELIJO-SB-PK    
1 66781U 25276DW  26095.76762682  .00009281  00000+0  76661-3 0  9994
2 66781  97.5298 168.9589 0010604  29.5201 330.6619 14.99131239 11772
LEMUR-2-FINNIAN         
1 66782U 25276DX  26095.63205065  .00009020  00000+0  73718-3 0  9999
2 66782  97.5333 168.9918 0006039  26.1794 333.9734 14.99581559  9120
