[{"OBJECT_NAME":"LEMUR-2-KREMPEL-BRO1","OBJECT_ID":"2025-061G","EPOCH":"2026-04-05T19:57:36.269856","MEAN_MOTION":15.14049322,"ECCENTRICITY":0.0020212,"INCLINATION":97.5569,"RA_OF_ASC_NODE":72.2135,"ARG_OF_PERICENTER":134.8973,"MEAN_ANOMALY":225.3903,"EPHEMERIS_TYPE":0,"CLASSIFICATION_TYPE":"U","NORAD_CAT_ID":63357,"ELEMENT_SET_NO":999,"REV_AT_EPOCH":5668,"BSTAR":0.00029195,"MEAN_MOTION_DOT":5.267e-5,"MEAN_MOTION_DDOT":0},{"OBJECT_NAME":"LEMUR-2-LANGER2SPACE","OBJECT_ID":"2025-061H","EPOCH":"2026-04-05T15:29:25.490688","MEAN_MOTION":15.13743993,"ECCENTRICITY":0.0018015,"INCLINATION":97.5575,"RA_OF_ASC_NODE":71.8718,"ARG_OF_PERICENTER":143.1664,"MEAN_ANOMALY":217.0809,"EPHEMERIS_TYPE":0,"CLASSIFICATION_TYPE":"U","NORAD_CAT_ID":63358,"ELEMENT_SET_NO":999,"REV_AT_EPOCH":5664,"BSTAR":0.00028388,"MEAN_MOTION_DOT":5.07e-5,"MEAN_MOTION_DDOT":0},{"OBJECT_NAME":"LEMUR-2-BALTO","OBJECT_ID":"2025-052BH","EPOCH":"2026-04-05T15:51:21.132864","MEAN_MOTION":14.99371394,"ECCENTRICITY":7.37e-5,"INCLINATION":97.6984,"RA_OF_ASC_NODE":350.1511,"ARG_OF_PERICENTER":90.7717,"MEAN_ANOMALY":269.359,"EPHEMERIS_TYPE":0,"CLASSIFICATION_TYPE":"U","NORAD_CAT_ID":63395,"ELEMENT_SET_NO":999,"REV_AT_EPOCH":5789,"BSTAR":0.00070935,"MEAN_MOTION_DOT":8.625e-5,"MEAN_MOTION_DDOT":0},{"OBJECT_NAME":"LEMUR-2-KRISH","OBJECT_ID":"2025-135AK","EPOCH":"2026-04-05T18:19:21.367200","MEAN_MOTION":14.95534764,"ECCENTRICITY":0.0001113,"INCLINATION":97.7649,"RA_OF_ASC_NODE":211.2196,"ARG_OF_PERICENTER":96.9865,"MEAN_ANOMALY":263.1482,"EPHEMERIS_TYPE":0,"CLASSIFICATION_TYPE":"U","NORAD_CAT_ID":64561,"ELEMENT_SET_NO":999,"REV_AT_EPOCH":4309,"BSTAR":0.00066499,"MEAN_MOTION_DOT":7.317e-5,"MEAN_MOTION_DDOT":0},{"OBJECT_NAME":"LEMUR-2-HUBBLE-4","OBJECT_ID":"2025-135AP","EPOCH":"2026-04-05T18:20:05.983296","MEAN_MOTION":14.92999118,"ECCENTRICITY":0.0003272,"INCLINATION":97.7603,"RA_OF_ASC_NODE":210.587,"ARG_OF_PERICENTER":146.4413,"MEAN_ANOMALY":213.7015,"EPHEMERIS_TYPE":0,"CLASSIFICATION_TYPE":"U","NORAD_CAT_ID":64565,"ELEMENT_SET_NO":999,"REV_AT_EPOCH":4306,"BSTAR":0.00024953,"MEAN_MOTION_DOT":2.537e-5,"MEAN_MOTION_DDOT":0},{"OBJECT_NAME":"LEMUR-2-SEJONG-2","OBJECT_ID":"2025-135BL","EPOCH":"2026-04-05T14:49:59.284992","MEAN_MOTION":14.96085561,"ECCENTRICITY":0.0004108,"INCLINATION":97.7603,"RA_OF_ASC_NODE":211.2113,"ARG_OF_PERICENTER":190.1957,"MEAN_ANOMALY":169.9182,"EPHEMERIS_TYPE":0,"CLASSIFICATION_TYPE":"U","NORAD_CAT_ID":64586,"ELEMENT_SET_NO":999,"REV_AT_EPOCH":4309,"BSTAR":0.00047688,"MEAN_MOTION_DOT":5.305e-5,"MEAN_MOTION_DDOT":0},{"OBJECT_NAME":"LEMUR-2-HUBBLE-5","OBJECT_ID":"2025-135BT","EPOCH":"2026-04-05T18:10:57.541152","MEAN_MOTION":14.93916523,"ECCENTRICITY":0.0004963,"INCLINATION":97.7622,"RA_OF_ASC_NODE":211.1071,"ARG_OF_PERICENTER":205.9735,"MEAN_ANOMALY":154.1236,"EPHEMERIS_TYPE":0,"CLASSIFICATION_TYPE":"U","NORAD_CAT_ID":64840,"ELEMENT_SET_NO":999,"REV_AT_EPOCH":4309,"BSTAR":0.00025187,"MEAN_MOTION_DOT":2.623e-5,"MEAN_MOTION_DDOT":0},{"OBJECT_NAME":"LEMUR-2-KARENDARRELL","OBJECT_ID":"2025-135BU","EPOCH":"2026-04-05T20:29:13.205184","MEAN_MOTION":14.99077317,"ECCENTRICITY":0.0008736,"INCLINATION":97.7608,"RA_OF_ASC_NODE":212.2518,"ARG_OF_PERICENTER":110.752,"MEAN_ANOMALY":249.464,"EPHEMERIS_TYPE":0,"CLASSIFICATION_TYPE":"U","NORAD_CAT_ID":64841,"ELEMENT_SET_NO":999,"REV_AT_EPOCH":4317,"BSTAR":0.00099036,"MEAN_MOTION_DOT":0.00011987,"MEAN_MOTION_DDOT":0},{"OBJECT_NAME":"LEMUR-2-LUCILLE-ROSE","OBJECT_ID":"2025-135BV","EPOCH":"2026-04-05T18:17:16.240128","MEAN_MOTION":14.99117832,"ECCENTRICITY":0.0010252,"INCLINATION":97.7642,"RA_OF_ASC_NODE":212.1459,"ARG_OF_PERICENTER":154.5733,"MEAN_ANOMALY":205.5996,"EPHEMERIS_TYPE":0,"CLASSIFICATION_TYPE":"U","NORAD_CAT_ID":65403,"ELEMENT_SET_NO":999,"REV_AT_EPOCH":3778,"BSTAR":0.00092513,"MEAN_MOTION_DOT":0.00011207,"MEAN_MOTION_DDOT":0},{"OBJECT_NAME":"LEMUR-2-AFFIE-WAUWIE","OBJECT_ID":"2025-248C","EPOCH":"2026-04-05T20:20:57.378048","MEAN_MOTION":15.2483225,"ECCENTRICITY":0.0007859,"INCLINATION":45.4004,"RA_OF_ASC_NODE":146.1851,"ARG_OF_PERICENTER":21.26,"MEAN_ANOMALY":338.8614,"EPHEMERIS_TYPE":0,"CLASSIFICATION_TYPE":"U","NORAD_CAT_ID":66295,"ELEMENT_SET_NO":999,"REV_AT_EPOCH":2354,"BSTAR":0.00082092,"MEAN_MOTION_DOT":0.00020533,"MEAN_MOTION_DDOT":0},{"OBJECT_NAME":"LEMUR-2-DEANANDMAEVE","OBJECT_ID":"2025-276N","EPOCH":"2026-04-05T16:01:00.212448","MEAN_MOTION":15.18829562,"ECCENTRICITY":0.0004534,"INCLINATION":97.4243,"RA_OF_ASC_NODE":170.386,"ARG_OF_PERICENTER":244.1015,"MEAN_ANOMALY":115.9752,"EPHEMERIS_TYPE":0,"CLASSIFICATION_TYPE":"U","NORAD_CAT_ID":66678,"ELEMENT_SET_NO":999,"REV_AT_EPOCH":1940,"BSTAR":0.00042856,"MEAN_MOTION_DOT":8.862e-5,"MEAN_MOTION_DDOT":0},{"OBJECT_NAME":"LEMUR-2-STAS-GORBUK","OBJECT_ID":"2025-276W","EPOCH":"2026-04-05T17:37:10.930656","MEAN_MOTION":15.18608546,"ECCENTRICITY":0.0003951,"INCLINATION":97.4281,"RA_OF_ASC_NODE":170.5048,"ARG_OF_PERICENTER":236.4251,"MEAN_ANOMALY":123.6606,"EPHEMERIS_TYPE":0,"CLASSIFICATION_TYPE":"U","NORAD_CAT_ID":66686,"ELEMENT_SET_NO":999,"REV_AT_EPOCH":1941,"BSTAR":0.00038786,"MEAN_MOTION_DOT":7.962e-5,"MEAN_MOTION_DDOT":0},{"OBJECT_NAME":"LEMUR-2-TEODOR","OBJECT_ID":"2025-276DG","EPOCH":"2026-04-05T17:33:21.739968","MEAN_MOTION":15.20275145,"ECCENTRICITY":0.0002116,"INCLINATION":97.418,"RA_OF_ASC_NODE":170.6483,"ARG_OF_PERICENTER":82.9292,"MEAN_ANOMALY":277.2183,"EPHEMERIS_TYPE":0,"CLASSIFICATION_TYPE":"U","NORAD_CAT_ID":66768,"ELEMENT_SET_NO":999,"REV_AT_EPOCH":1943,"BSTAR":0.0003575,"MEAN_MOTION_DOT":7.696e-5,"MEAN_MOTION_DDOT":0},{"OBJECT_NAME":"LEMUR-2-LAILA","OBJECT_ID":"2025-276DQ","EPOCH":"2026-04-05T17:10:35.438880","MEAN_MOTION":15.20486145,"ECCENTRICITY":0.0002759,"INCLINATION":97.4203,"RA_OF_ASC_NODE":170.7078,"ARG_OF_PERICENTER":87.8988,"MEAN_ANOMALY":272.2563,"EPHEMERIS_TYPE":0,"CLASSIFICATION_TYPE":"U","NORAD_CAT_ID":66776,"ELEMENT_SET_NO":999,"REV_AT_EPOCH":1943,"BSTAR":0.00035072,"MEAN_MOTION_DOT":7.596e-5,"MEAN_MOTION_DDOT":0},{"OBJECT_NAME":"LEMUR-2-CELIJO-SB-PK","OBJECT_ID":"2025-276DW","EPOCH":"2026-04-05T18:25:22.957248","MEAN_MOTION":14.99131239,"ECCENTRICITY":0.0010604,"INCLINATION":97.5298,"RA_OF_ASC_NODE":168.9589,"ARG_OF_PERICENTER":29.5201,"MEAN_ANOMALY":330.6619,"EPHEMERIS_TYPE":0,"CLASSIFICATION_TYPE":"U","NORAD_CAT_ID":66781,"ELEMENT_SET_NO":999,"REV_AT_EPOCH":1177,"BSTAR":0.00076661,"MEAN_MOTION_DOT":9.281e-5,"MEAN_MOTION_DDOT":0},{"OBJECT_NAME":"LEMUR-2-FINNIAN","OBJECT_ID":"2025-276DX","EPOCH":"2026-04-05T15:10:09.176160","MEAN_MOTION":14.99581559,"ECCENTRICITY":0.0006039,"INCLINATION":97.5333,"RA_OF_ASC_NODE":168.9918,"ARG_OF_PERICENTER":26.1794,"MEAN_ANOMALY":333.9734,"EPHEMERIS_TYPE":0,"CLASSIFICATION_TYPE":"U","NORAD_CAT_ID":66782,"ELEMENT_SET_NO":999,"REV_AT_EPOCH":912,"BSTAR":0.00073718,"MEAN_MOTION_DOT":9.02e-5,"MEAN_MOTION_DDOT":0}]
